{
    "links": {
        "self": "http://www.neowsapp.com/rest/v1/neo/3536563?api_key=iIulBulltgU6a56xZRHN4H3l9WmuAYTsLGpBGhQ2"
    },
    "id": "3536563",
    "neo_reference_id": "3536563",
    "name": "(2010 NK)",
    "designation": "2010 NK",
    "nasa_jpl_url": "http://ssd.jpl.nasa.gov/sbdb.cgi?sstr=3536563",
    "absolute_magnitude_h": 24.4,
    "estimated_diameter": {
        "kilometers": {
            "estimated_diameter_min": 0.0350392641,
            "estimated_diameter_max": 0.0783501764
        },
        "meters": {
            "estimated_diameter_min": 35.0392641108,
            "estimated_diameter_max": 78.3501764334
        },
        "miles": {
            "estimated_diameter_min": 0.0217723826,
            "estimated_diameter_max": 0.0486845275
        },
        "feet": {
            "estimated_diameter_min": 114.9582192654,
            "estimated_diameter_max": 257.0543928497
        }
    },
    "is_potentially_hazardous_asteroid": false,
    "close_approach_data": [
        {
            "close_approach_date": "2010-06-28",
            "close_approach_date_full": "2010-Jun-28 18:14",
            "epoch_date_close_approach": 1277748840000,
            "relative_velocity": {
                "kilometers_per_second": "16.5460437098",
                "kilometers_per_hour": "59565.7573553074",
                "miles_per_hour": "37011.8451744686"
            },
            "miss_distance": {
                "astronomical": "0.0217579805",
                "lunar": "8.4638544145",
                "kilometers": "3254947.538301535",
                "miles": "2022530.614309783"
            },
            "orbiting_body": "Earth"
        }
    ],
    "orbital_data": {
        "orbit_id": "7",
        "orbit_determination_date": "2017-04-06 08:57:09",
        "first_observation_date": "2010-07-03",
        "last_observation_date": "2010-07-08",
        "data_arc_in_days": 5,
        "observations_used": 12,
        "orbit_uncertainty": "9",
        "minimum_orbit_intersection": ".00596198",
        "jupiter_tisserand_invariant": "4.762",
        "epoch_osculation": "2455382.5",
        "eccentricity": ".5208086407425446",
        "semi_major_axis": "1.3260159808277",
        "inclination": "13.60488838594123",
        "ascending_node_longitude": "99.10222131889678",
        "orbital_period": "557.7268645212234",
        "perihelion_distance": ".6354154002499334",
        "perihelion_argument": "82.99544208526989",
        "aphelion_distance": "2.016616561405466",
        "perihelion_time": "2455318.973492244061",
        "mean_anomaly": "41.00491521377625",
        "mean_motion": ".6454772450472498",
        "equinox": "J2000",
        "orbit_class": {
            "orbit_class_type": "APO",
            "orbit_class_description": "Near-Earth asteroid orbits which cross the Earth’s orbit similar to that of 1862 Apollo",
            "orbit_class_range": "a (semi-major axis) > 1.0 AU; q (perihelion) < 1.017 AU"
        }
    },
    "is_sentry_object": false
}